NORAD_CAT_ID,OBJECT_NAME,OBJECT_TYPE,EPOCH,MEAN_MOTION,ECCENTRICITY,INCLINATION,RA_OF_ASC_NODE,ARG_OF_PERICENTER,MEAN_ANOMALY,BSTAR,MEAN_MOTION_DOT,MEAN_MOTION_DDOT,TLE_LINE0,TLE_LINE1,TLE_LINE2,SEMIMAJOR_AXIS,PERIOD,APOGEE,PERIGEE,DECAYED
52859.0,STARLINK-4196,PAYLOAD,2023-11-01 16:13:41,15.08860462,0.0001438,53.2189,280.38,104.0255,256.0897,0.00070418,0.00010943,0.0,0 STARLINK-4196,1 52859U 22062AF  23305.67617361  .00010943  00000-0  70418-3 0  9991,2 52859  53.2189 280.3800 0001438 104.0255 256.0897 15.08860462 76733,6917.818,95.436,540.678,538.688,0.0
52859.0,STARLINK-4196,PAYLOAD,2023-11-01 22:35:14,15.08862518,0.0002663,53.2176,279.1914,96.0805,264.049,0.0010984,0.00017247,0.0,0 STARLINK-4196,1 52859U 22062AF  23305.94113647  .00017247  00000-0  10984-2 0  9994,2 52859  53.2176 279.1914 0002663  96.0805 264.0490 15.08862518 76285,6917.812,95.436,541.519,537.834,0.0
52859.0,STARLINK-4196,PAYLOAD,2023-11-02 04:56:46,15.08848818,0.0001687,53.2196,278.0031,106.2308,253.887,3.4318e-05,2.58e-06,0.0,0 STARLINK-4196,1 52859U 22062AF  23306.20609424  .00000258  00000-0  34318-4 0  9990,2 52859  53.2196 278.0031 0001687 106.2308 253.8870 15.08848818 76816,6917.853,95.437,540.885,538.551,0.0
52859.0,STARLINK-4196,PAYLOAD,2023-11-02 08:07:32,15.08853971,0.0001616,53.2184,277.4072,105.6536,254.4635,0.00033643,5.072e-05,0.0,0 STARLINK-4196,1 52859U 22062AF  23306.33857333  .00005072  00000-0  33643-3 0  9996,2 52859  53.2184 277.4072 0001616 105.6536 254.4635 15.08853971 76349,6917.838,95.437,540.821,538.585,0.0
52859.0,STARLINK-4196,PAYLOAD,2023-11-02 22:26:01,15.08836215,0.0001714,53.2183,274.7265,108.8628,251.2551,0.00026876,3.991e-05,0.0,0 STARLINK-4196,1 52859U 22062AF  23306.93473986  .00003991  00000-0  26876-3 0  9998,2 52859  53.2183 274.7265 0001714 108.8628 251.2551 15.08836215 76432,6917.892,95.438,540.943,538.571,0.0
52859.0,STARLINK-4196,PAYLOAD,2023-11-03 04:47:34,15.08843325,0.000141,53.2174,273.5413,99.4173,260.6979,0.00044848,6.857e-05,0.0,0 STARLINK-4196,1 52859U 22062AF  23307.19969937  .00006857  00000-0  44848-3 0  9996,2 52859  53.2174 273.5413 0001410  99.4173 260.6979 15.08843325 76963,6917.87,95.437,540.711,538.76,0.0
52859.0,STARLINK-4196,PAYLOAD,2023-11-03 14:19:52,15.08843885,0.0001406,53.2173,271.7574,98.9279,261.1873,0.00043999,6.722e-05,0.0,0 STARLINK-4196,1 52859U 22062AF  23307.59714064  .00006722  00000-0  43999-3 0  9996,2 52859  53.2173 271.7574 0001406  98.9279 261.1873 15.08843885 76539,6917.869,95.437,540.706,538.761,0.0
52859.0,STARLINK-4196,PAYLOAD,2023-11-03 22:16:48,15.08837602,0.0001668,53.2186,270.2728,100.2977,259.8203,9.9576e-05,1.297e-05,0.0,0 STARLINK-4196,1 52859U 22062AF  23307.92834478  .00001297  00000-0  99576-4 0  9990,2 52859  53.2186 270.2728 0001668 100.2977 259.8203 15.08837602 76586,6917.888,95.438,540.907,538.599,0.0
52859.0,STARLINK-4196,PAYLOAD,2023-11-04 04:38:21,15.08849144,0.0001371,53.2176,269.083,97.4458,262.669,0.00047766,7.324e-05,0.0,0 STARLINK-4196,1 52859U 22062AF  23308.19330002  .00007324  00000-0  47766-3 0  9994,2 52859  53.2176 269.0830 0001371  97.4458 262.6690 15.08849144 77113,6917.852,95.437,540.666,538.769,0.0
52859.0,STARLINK-4196,PAYLOAD,2023-11-04 14:10:40,15.08847625,0.0001284,53.2178,267.3001,90.2151,269.8988,0.00062786,9.721e-05,0.0,0 STARLINK-4196,1 52859U 22062AF  23308.59074215  .00009721  00000-0  62786-3 0  9991,2 52859  53.2178 267.3001 0001284  90.2151 269.8988 15.08847625 76682,6917.857,95.437,540.61,538.834,0.0
52859.0,STARLINK-4196,PAYLOAD,2023-11-05 14:01:26,15.08858561,0.0001293,53.2164,262.8389,95.4589,264.6551,0.00093278,0.00014596,0.0,0 STARLINK-4196,1 52859U 22062AF  23309.58433997  .00014596  00000-0  93278-3 0  9993,2 52859  53.2164 262.8389 0001293  95.4589 264.6551 15.08858561 76835,6917.824,95.436,540.583,538.794,0.0
52859.0,STARLINK-4196,PAYLOAD,2023-11-06 02:44:30,15.08905348,0.0001672,53.2162,260.46,92.9683,267.15,0.0027567,0.00043938,0.0,0 STARLINK-4196,1 52859U 22062AF  23310.11424715  .00043938  00000-0  27567-2 0  9991,2 52859  53.2162 260.4600 0001672  92.9683 267.1500 15.08905348 77403,6917.681,95.433,540.702,538.389,0.0
52859.0,STARLINK-4196,PAYLOAD,2023-11-06 13:52:12,15.08895373,0.0003406,53.2158,258.3773,76.3143,283.8228,0.0010761,0.00016906,0.0,0 STARLINK-4196,1 52859U 22062AF  23310.57791988  .00016906  00000-0  10761-2 0  9993,2 52859  53.2158 258.3773 0003406  76.3143 283.8228 15.08895373 76989,6917.711,95.434,541.932,537.22,0.0
52859.0,STARLINK-4196,PAYLOAD,2023-11-07 04:10:40,15.08802634,0.0001165,53.2159,255.7014,121.4829,238.6277,-0.00041171,-6.827e-05,0.0,0 STARLINK-4196,1 52859U 22062AF  23311.17408516 -.00006827  00000-0 -41171-3 0  9995,2 52859  53.2159 255.7014 0001165 121.4829 238.6277 15.08802634 77567,6917.995,95.44,540.666,539.054,0.0
52859.0,STARLINK-4196,PAYLOAD,2023-11-07 13:43:01,15.08793743,0.0001179,53.216,253.9182,90.0944,270.0183,0.0010097,0.00015798,0.0,0 STARLINK-4196,1 52859U 22062AF  23311.57154235  .00015798  00000-0  10097-2 0  9992,2 52859  53.2160 253.9182 0001179  90.0944 270.0183 15.08793743 77138,6918.022,95.44,540.702,539.071,0.0
52859.0,STARLINK-4196,PAYLOAD,2023-11-08 02:26:07,15.0882309,0.0001011,53.2164,251.5371,106.3906,253.7197,0.0017785,0.00028117,0.0,0 STARLINK-4196,1 52859U 22062AF  23312.10147037  .00028117  00000-0  17785-2 0  9994,2 52859  53.2164 251.5371 0001011 106.3906 253.7197 15.08823090 77705,6917.932,95.439,540.496,539.098,0.0
52859.0,STARLINK-4196,PAYLOAD,2023-11-08 05:36:53,15.088388,0.0001077,53.2165,250.9425,98.3373,261.7741,0.0021637,0.00034314,0.0,0 STARLINK-4196,1 52859U 22062AF  23312.23394939  .00034314  00000-0  21637-2 0  9990,2 52859  53.2165 250.9425 0001077  98.3373 261.7741 15.08838800 77720,6917.884,95.438,540.494,539.004,0.0
52859.0,STARLINK-4196,PAYLOAD,2023-11-09 02:16:54,15.08859545,0.0001175,53.2174,247.077,82.6315,277.4811,0.0017217,0.00027234,0.0,0 STARLINK-4196,1 52859U 22062AF  23313.09506980  .00027234  00000-0  17217-2 0  9998,2 52859  53.2174 247.0770 0001175  82.6315 277.4811 15.08859545 77856,6917.821,95.436,540.498,538.873,0.0
52859.0,STARLINK-4196,PAYLOAD,2023-11-09 05:27:40,15.0886959,0.0001412,53.2171,246.4823,88.5975,271.5178,0.0019753,0.00031314,0.0,0 STARLINK-4196,1 52859U 22062AF  23313.22754677  .00031314  00000-0  19753-2 0  9992,2 52859  53.2171 246.4823 0001412  88.5975 271.5178 15.08869590 77386,6917.79,95.436,540.632,538.678,0.0
52859.0,STARLINK-4196,PAYLOAD,2023-11-09 22:56:54,15.0885579,0.0001236,53.2176,243.211,100.8679,259.2453,0.0012401,0.00019512,0.0,0 STARLINK-4196,1 52859U 22062AF  23313.95618700  .00019512  00000-0  12401-2 0  9997,2 52859  53.2176 243.2110 0001236 100.8679 259.2453 15.08855790 77496,6917.832,95.437,540.552,538.842,0.0
52859.0,STARLINK-4196,PAYLOAD,2023-11-10 02:07:40,15.08856792,0.0001289,53.2171,242.6162,102.5197,257.5939,0.0013561,0.0002137,0.0,0 STARLINK-4196,1 52859U 22062AF  23314.08866621  .00021370  00000-0  13561-2 0  9992,2 52859  53.2171 242.6162 0001289 102.5197 257.5939 15.08856792 78004,6917.829,95.436,540.586,538.802,0.0
52859.0,STARLINK-4196,PAYLOAD,2023-11-11 01:58:26,15.08853149,9.55e-05,53.2176,238.1544,87.4637,272.6465,0.0003163,4.751e-05,0.0,0 STARLINK-4196,1 52859U 22062AF  23315.08224990  .00004751  00000-0  31630-3 0  9992,2 52859  53.2176 238.1544 0000955  87.4637 272.6465 15.08853149 78153,6917.84,95.437,540.366,539.045,0.0
52859.0,STARLINK-4196,PAYLOAD,2023-11-11 11:30:46,15.08840566,0.0001224,53.218,236.3675,66.8146,293.2975,-1.0272e-05,-4.51e-06,0.0,0 STARLINK-4196,1 52859U 22062AF  23315.47969922 -.00000451  00000-0 -10272-4 0  9991,2 52859  53.2180 236.3675 0001224  66.8146 293.2975 15.08840566 78210,6917.879,95.438,540.59,538.897,0.0
52859.0,STARLINK-4196,PAYLOAD,2023-11-11 22:38:28,15.08823282,0.0001069,53.2172,234.2923,76.0446,284.0665,-0.00040955,-6.797e-05,0.0,0 STARLINK-4196,1 52859U 22062AF  23315.94338454 -.00006797  00000-0 -40955-3 0  9992,2 52859  53.2172 234.2923 0001069  76.0446 284.0665 15.08823282 77799,6917.931,95.439,540.536,539.057,0.0
52859.0,STARLINK-4196,PAYLOAD,2023-11-12 01:49:14,15.08827882,0.0001041,53.2168,233.6977,85.9054,274.2057,-0.00014254,-2.555e-05,0.0,0 STARLINK-4196,1 52859U 22062AF  23316.07586488 -.00002555  00000-0 -14254-3 0  9990,2 52859  53.2168 233.6977 0001041  85.9054 274.2057 15.08827882 78304,6917.917,95.438,540.503,539.062,0.0
52859.0,STARLINK-4196,PAYLOAD,2023-11-12 11:21:34,15.08822145,0.0001008,53.2167,231.9138,83.2574,276.8533,0.00051177,7.862e-05,0.0,0 STARLINK-4196,1 52859U 22062AF  23316.47331271  .00007862  00000-0  51177-3 0  9991,2 52859  53.2167 231.9138 0001008  83.2574 276.8533 15.08822145 77879,6917.935,95.439,540.497,539.103,0.0
52859.0,STARLINK-4196,PAYLOAD,2023-11-12 22:29:16,15.08834693,9.97e-05,53.2164,229.8325,84.1703,275.9402,0.00069664,0.00010815,0.0,0 STARLINK-4196,1 52859U 22062AF  23316.93699537  .00010815  00000-0  69664-3 0  9996,2 52859  53.2164 229.8325 0000997  84.1703 275.9402 15.08834693 77944,6917.897,95.438,540.451,539.072,0.0
52859.0,STARLINK-4196,PAYLOAD,2023-11-13 03:15:25,15.08848255,0.0001019,53.2162,228.9408,90.5642,269.5466,0.0010405,0.00016314,0.0,0 STARLINK-4196,1 52859U 22062AF  23317.13571365  .00016314  00000-0  10405-2 0  9995,2 52859  53.2162 228.9408 0001019  90.5642 269.5466 15.08848255 78469,6917.855,95.437,540.425,539.015,0.0
52859.0,STARLINK-4196,PAYLOAD,2023-11-13 11:12:21,15.08842525,0.0001238,53.2183,227.4511,92.3733,267.7401,0.00065179,0.00010101,0.0,0 STARLINK-4196,1 52859U 22062AF  23317.46691478  .00010101  00000-0  65179-3 0  9996,2 52859  53.2183 227.4511 0001238  92.3733 267.7401 15.08842525 78514,6917.873,95.437,540.594,538.881,0.0
52859.0,STARLINK-4196,PAYLOAD,2023-11-14 03:06:12,15.08866676,0.0001291,53.2175,224.4765,91.6356,268.4784,0.00083305,0.00013004,0.0,0 STARLINK-4196,1 52859U 22062AF  23318.12930557  .00013004  00000-0  83305-3 0  9990,2 52859  53.2175 224.4765 0001291  91.6356 268.4784 15.08866676 78611,6917.799,95.436,540.557,538.771,0.0
